{
"type": "FeatureCollection",
"name": "shahmeer_whatsapp_markers",
"crs": { "type": "name", "properties": { "name": "urn:ogc:def:crs:OGC:1.3:CRS84" } },
"features": [
{ "type": "Feature", "properties": { "id": "0C453104A43E247B9224", "Name": "Misc Notes at end", "description": "<div>From c3 converts to D4(maybe need to confirm) (guava and notary bagh)<br></div><div>Near this we have tubewell no solar( dW2 without solar)<br></div><div>C2 in the middle near the big mango bath there is solar tubewell TBw1)<br></div><div>&nbsp;Next d4 is the diesel tv well near canal<br></div><div>D1 next to basti touches d4- raya is ready for harvest<br></div>", "timestamp": null, "begin": null, "end": null, "altitudeMode": null, "tessellate": -1, "extrude": 0, "visibility": -1, "drawOrder": null, "icon": null }, "geometry": { "type": "Point", "coordinates": [ 70.549005381247142, 28.49918206896437, 83.320773058812961 ] } },
{ "type": "Feature", "properties": { "id": "0440D52E753E24717D30", "Name": "B2", "description": null, "timestamp": null, "begin": null, "end": null, "altitudeMode": null, "tessellate": -1, "extrude": 1, "visibility": -1, "drawOrder": null, "icon": null }, "geometry": { "type": "Point", "coordinates": [ 70.545685, 28.504944, 0.0 ] } },
{ "type": "Feature", "properties": { "id": "08C3399D583E2471FBB9", "Name": "B1", "description": null, "timestamp": null, "begin": null, "end": null, "altitudeMode": null, "tessellate": -1, "extrude": 1, "visibility": -1, "drawOrder": null, "icon": null }, "geometry": { "type": "Point", "coordinates": [ 70.542099, 28.506142, 0.0 ] } },
{ "type": "Feature", "properties": { "id": "034533BE513E2472755F", "Name": "B1 ends here and d4 starts both sides", "description": null, "timestamp": null, "begin": null, "end": null, "altitudeMode": null, "tessellate": -1, "extrude": 1, "visibility": -1, "drawOrder": null, "icon": null }, "geometry": { "type": "Point", "coordinates": [ 70.540413, 28.506124, 0.0 ] } },
{ "type": "Feature", "properties": { "id": "0CCF8F76023E24730A61", "Name": "Left of road a4, right side a1From this end , A1 till gain huge block", "description": null, "timestamp": null, "begin": null, "end": null, "altitudeMode": null, "tessellate": -1, "extrude": 1, "visibility": -1, "drawOrder": null, "icon": null }, "geometry": { "type": "Point", "coordinates": [ 70.537079, 28.506081, 0.0 ] } },
{ "type": "Feature", "properties": { "id": "006CA2B58E3E2476421B", "Name": "Before bagh A2, both sides of road", "description": null, "timestamp": null, "begin": null, "end": null, "altitudeMode": null, "tessellate": -1, "extrude": 1, "visibility": -1, "drawOrder": null, "icon": null }, "geometry": { "type": "Point", "coordinates": [ 70.537041, 28.504641, 0.0 ] } },
{ "type": "Feature", "properties": { "id": "08929FA3C63E2476CDFC", "Name": "A2 opposite mango bath", "description": null, "timestamp": null, "begin": null, "end": null, "altitudeMode": null, "tessellate": -1, "extrude": 1, "visibility": -1, "drawOrder": null, "icon": null }, "geometry": { "type": "Point", "coordinates": [ 70.537048, 28.5028, 0.0 ] } },
{ "type": "Feature", "properties": { "id": "00B72694F93E24778DF0", "Name": "A3 after A2, opposite bagh D1", "description": null, "timestamp": null, "begin": null, "end": null, "altitudeMode": null, "tessellate": -1, "extrude": 1, "visibility": -1, "drawOrder": null, "icon": null }, "geometry": { "type": "Point", "coordinates": [ 70.537041, 28.499346, 0.0 ] } },
{ "type": "Feature", "properties": { "id": "055C3664303E2470DD56", "Name": "B3 quinoa ad maize", "description": null, "timestamp": null, "begin": null, "end": null, "altitudeMode": null, "tessellate": -1, "extrude": 1, "visibility": -1, "drawOrder": null, "icon": null }, "geometry": { "type": "Point", "coordinates": [ 70.548691, 28.504971, 0.0 ] } },
{ "type": "Feature", "properties": { "id": "0AA60FD1B93E247871AE", "Name": "TW solar 2 opposite next to A2", "description": null, "timestamp": null, "begin": null, "end": null, "altitudeMode": null, "tessellate": -1, "extrude": 1, "visibility": -1, "drawOrder": null, "icon": null }, "geometry": { "type": "Point", "coordinates": [ 70.537048, 28.502159, 0.0 ] } },
{ "type": "Feature", "properties": { "id": "0FE1C5A87F3E247980CB", "Name": "C2 ends and c3 starts", "description": null, "timestamp": null, "begin": null, "end": null, "altitudeMode": null, "tessellate": -1, "extrude": 1, "visibility": -1, "drawOrder": null, "icon": null }, "geometry": { "type": "Point", "coordinates": [ 70.54612, 28.499445, 0.0 ] } },
{ "type": "Feature", "properties": { "id": "02E3D2F9583E2479FBBB", "Name": "C3 best plot", "description": null, "timestamp": null, "begin": null, "end": null, "altitudeMode": null, "tessellate": -1, "extrude": 1, "visibility": -1, "drawOrder": null, "icon": null }, "geometry": { "type": "Point", "coordinates": [ 70.548866, 28.499496, 0.0 ] } },
{ "type": "Feature", "properties": { "id": "0330DAE4363E24790A70", "Name": "C2 bagh opposite", "description": null, "timestamp": null, "begin": null, "end": null, "altitudeMode": null, "tessellate": -1, "extrude": 1, "visibility": -1, "drawOrder": null, "icon": null }, "geometry": { "type": "Point", "coordinates": [ 70.544075, 28.499414, 0.0 ] } }
]
}
